[{"OBJECT_NAME":"HAIYANG-2C","OBJECT_ID":"2020-066A","EPOCH":"2026-03-09T23:27:23.046048","MEAN_MOTION":13.83375283,"ECCENTRICITY":0.001262,"INCLINATION":65.9957,"RA_OF_ASC_NODE":102.2961,"ARG_OF_PERICENTER":249.7305,"MEAN_ANOMALY":110.2407,"EPHEMERIS_TYPE":0,"CLASSIFICATION_TYPE":"U","NORAD_CAT_ID":46469,"ELEMENT_SET_NO":999,"REV_AT_EPOCH":27577,"BSTAR":0.00017439062,"MEAN_MOTION_DOT":1.11e-6,"MEAN_MOTION_DDOT":0},{"OBJECT_NAME":"COSMOS 1275 DEB","OBJECT_ID":"1981-053FY","EPOCH":"2026-03-09T22:36:15.561792","MEAN_MOTION":13.81915879,"ECCENTRICITY":0.00947588,"INCLINATION":82.8646,"RA_OF_ASC_NODE":235.359,"ARG_OF_PERICENTER":328.8138,"MEAN_ANOMALY":185.6892,"EPHEMERIS_TYPE":0,"CLASSIFICATION_TYPE":"U","NORAD_CAT_ID":13478,"ELEMENT_SET_NO":999,"REV_AT_EPOCH":19543,"BSTAR":0.00064772541,"MEAN_MOTION_DOT":7.33e-6,"MEAN_MOTION_DDOT":0}]
